[{"OBJECT_NAME":"NOAA 1","OBJECT_ID":"1970-106A","EPOCH":"2026-03-03T18:12:05.167296","MEAN_MOTION":12.54049147,"ECCENTRICITY":0.0031685,"INCLINATION":101.3525,"RA_OF_ASC_NODE":102.0386,"ARG_OF_PERICENTER":192.4898,"MEAN_ANOMALY":290.6234,"EPHEMERIS_TYPE":0,"CLASSIFICATION_TYPE":"U","NORAD_CAT_ID":4793,"ELEMENT_SET_NO":999,"REV_AT_EPOCH":52747,"BSTAR":0.0001067,"MEAN_MOTION_DOT":-2.6e-7,"MEAN_MOTION_DDOT":0},{"OBJECT_NAME":"NOAA 2 (ITOS-D)","OBJECT_ID":"1972-082A","EPOCH":"2026-03-03T16:20:57.679296","MEAN_MOTION":12.53211619,"ECCENTRICITY":0.0004,"INCLINATION":102.0168,"RA_OF_ASC_NODE":80.0662,"ARG_OF_PERICENTER":16.561,"MEAN_ANOMALY":98.3303,"EPHEMERIS_TYPE":0,"CLASSIFICATION_TYPE":"U","NORAD_CAT_ID":6235,"ELEMENT_SET_NO":999,"REV_AT_EPOCH":44173,"BSTAR":8.8374e-5,"MEAN_MOTION_DOT":-3.2e-7,"MEAN_MOTION_DDOT":0},{"OBJECT_NAME":"NOAA 3","OBJECT_ID":"1973-086A","EPOCH":"2026-03-03T15:14:49.915680","MEAN_MOTION":12.40391593,"ECCENTRICITY":0.0006188,"INCLINATION":102.2909,"RA_OF_ASC_NODE":75.5548,"ARG_OF_PERICENTER":320.349,"MEAN_ANOMALY":157.845,"EPHEMERIS_TYPE":0,"CLASSIFICATION_TYPE":"U","NORAD_CAT_ID":6920,"ELEMENT_SET_NO":999,"REV_AT_EPOCH":36881,"BSTAR":9.8786e-5,"MEAN_MOTION_DOT":-3.3e-7,"MEAN_MOTION_DDOT":0},{"OBJECT_NAME":"NOAA 4","OBJECT_ID":"1974-089A","EPOCH":"2026-03-03T15:49:48.008352","MEAN_MOTION":12.53201525,"ECCENTRICITY":0.0009166,"INCLINATION":102.0074,"RA_OF_ASC_NODE":74.3262,"ARG_OF_PERICENTER":40.1247,"MEAN_ANOMALY":69.2102,"EPHEMERIS_TYPE":0,"CLASSIFICATION_TYPE":"U","NORAD_CAT_ID":7529,"ELEMENT_SET_NO":999,"REV_AT_EPOCH":34630,"BSTAR":2.5942e-5,"MEAN_MOTION_DOT":-4.2e-7,"MEAN_MOTION_DDOT":0},{"OBJECT_NAME":"NOAA 5","OBJECT_ID":"1976-077A","EPOCH":"2026-03-03T13:09:29.626848","MEAN_MOTION":12.37828193,"ECCENTRICITY":0.0009764,"INCLINATION":102.2951,"RA_OF_ASC_NODE":48.0231,"ARG_OF_PERICENTER":171.8383,"MEAN_ANOMALY":302.4349,"EPHEMERIS_TYPE":0,"CLASSIFICATION_TYPE":"U","NORAD_CAT_ID":9057,"ELEMENT_SET_NO":999,"REV_AT_EPOCH":24140,"BSTAR":5.8322e-5,"MEAN_MOTION_DOT":-3.8e-7,"MEAN_MOTION_DDOT":0},{"OBJECT_NAME":"TIROS N","OBJECT_ID":"1978-096A","EPOCH":"2026-03-03T16:17:01.407264","MEAN_MOTION":14.19335292,"ECCENTRICITY":0.0010402,"INCLINATION":98.4639,"RA_OF_ASC_NODE":88.4649,"ARG_OF_PERICENTER":182.1762,"MEAN_ANOMALY":177.9371,"EPHEMERIS_TYPE":0,"CLASSIFICATION_TYPE":"U","NORAD_CAT_ID":11060,"ELEMENT_SET_NO":999,"REV_AT_EPOCH":66378,"BSTAR":0.00012799,"MEAN_MOTION_DOT":2.27e-6,"MEAN_MOTION_DDOT":0},{"OBJECT_NAME":"NOAA 6","OBJECT_ID":"1979-057A","EPOCH":"2026-03-03T16:42:40.546368","MEAN_MOTION":14.35428356,"ECCENTRICITY":0.0009406,"INCLINATION":98.5758,"RA_OF_ASC_NODE":92.8861,"ARG_OF_PERICENTER":205.1023,"MEAN_ANOMALY":154.9706,"EPHEMERIS_TYPE":0,"CLASSIFICATION_TYPE":"U","NORAD_CAT_ID":11416,"ELEMENT_SET_NO":999,"REV_AT_EPOCH":43582,"BSTAR":0.00016209,"MEAN_MOTION_DOT":4.22e-6,"MEAN_MOTION_DDOT":0},{"OBJECT_NAME":"NOAA 7","OBJECT_ID":"1981-059A","EPOCH":"2026-03-03T17:35:35.805984","MEAN_MOTION":14.17771863,"ECCENTRICITY":0.0011034,"INCLINATION":98.8072,"RA_OF_ASC_NODE":130.8343,"ARG_OF_PERICENTER":205.0547,"MEAN_ANOMALY":155.0094,"EPHEMERIS_TYPE":0,"CLASSIFICATION_TYPE":"U","NORAD_CAT_ID":12553,"ELEMENT_SET_NO":999,"REV_AT_EPOCH":30980,"BSTAR":6.3797e-5,"MEAN_MOTION_DOT":8.6e-7,"MEAN_MOTION_DDOT":0},{"OBJECT_NAME":"NOAA 8","OBJECT_ID":"1983-022A","EPOCH":"2026-03-03T14:32:32.452224","MEAN_MOTION":14.29764075,"ECCENTRICITY":0.0014335,"INCLINATION":98.7373,"RA_OF_ASC_NODE":75.3832,"ARG_OF_PERICENTER":203.6155,"MEAN_ANOMALY":156.437,"EPHEMERIS_TYPE":0,"CLASSIFICATION_TYPE":"U","NORAD_CAT_ID":13923,"ELEMENT_SET_NO":999,"REV_AT_EPOCH":23598,"BSTAR":9.6927e-5,"MEAN_MOTION_DOT":2.04e-6,"MEAN_MOTION_DDOT":0},{"OBJECT_NAME":"NOAA 9","OBJECT_ID":"1984-123A","EPOCH":"2026-03-03T17:23:51.982944","MEAN_MOTION":14.17036595,"ECCENTRICITY":0.0013708,"INCLINATION":99.1101,"RA_OF_ASC_NODE":86.8671,"ARG_OF_PERICENTER":289.8193,"MEAN_ANOMALY":183.1605,"EPHEMERIS_TYPE":0,"CLASSIFICATION_TYPE":"U","NORAD_CAT_ID":15427,"ELEMENT_SET_NO":999,"REV_AT_EPOCH":12848,"BSTAR":9.537e-5,"MEAN_MOTION_DOT":1.45e-6,"MEAN_MOTION_DDOT":0},{"OBJECT_NAME":"NOAA 10","OBJECT_ID":"1986-073A","EPOCH":"2026-03-03T12:46:36.067296","MEAN_MOTION":14.29141199,"ECCENTRICITY":0.001121,"INCLINATION":98.6994,"RA_OF_ASC_NODE":55.9376,"ARG_OF_PERICENTER":308.8224,"MEAN_ANOMALY":162.0514,"EPHEMERIS_TYPE":0,"CLASSIFICATION_TYPE":"U","NORAD_CAT_ID":16969,"ELEMENT_SET_NO":999,"REV_AT_EPOCH":5432,"BSTAR":0.00010398,"MEAN_MOTION_DOT":2.19e-6,"MEAN_MOTION_DDOT":0},{"OBJECT_NAME":"NOAA 11","OBJECT_ID":"1988-089A","EPOCH":"2026-03-03T17:00:47.880864","MEAN_MOTION":14.15819191,"ECCENTRICITY":0.0010063,"INCLINATION":98.6089,"RA_OF_ASC_NODE":11.9513,"ARG_OF_PERICENTER":238.2075,"MEAN_ANOMALY":121.8119,"EPHEMERIS_TYPE":0,"CLASSIFICATION_TYPE":"U","NORAD_CAT_ID":19531,"ELEMENT_SET_NO":999,"REV_AT_EPOCH":93255,"BSTAR":6.1835e-5,"MEAN_MOTION_DOT":7.9e-7,"MEAN_MOTION_DDOT":0},{"OBJECT_NAME":"NOAA 12","OBJECT_ID":"1991-032A","EPOCH":"2026-03-03T17:19:58.274400","MEAN_MOTION":14.2671522,"ECCENTRICITY":0.0013263,"INCLINATION":98.6146,"RA_OF_ASC_NODE":52.8166,"ARG_OF_PERICENTER":341.2865,"MEAN_ANOMALY":18.7826,"EPHEMERIS_TYPE":0,"CLASSIFICATION_TYPE":"U","NORAD_CAT_ID":21263,"ELEMENT_SET_NO":999,"REV_AT_EPOCH":80992,"BSTAR":8.6207e-5,"MEAN_MOTION_DOT":1.65e-6,"MEAN_MOTION_DDOT":0},{"OBJECT_NAME":"NOAA 13","OBJECT_ID":"1993-050A","EPOCH":"2026-03-03T18:36:03.867264","MEAN_MOTION":14.13633985,"ECCENTRICITY":0.0010544,"INCLINATION":98.6926,"RA_OF_ASC_NODE":10.6875,"ARG_OF_PERICENTER":72.214,"MEAN_ANOMALY":288.0183,"EPHEMERIS_TYPE":0,"CLASSIFICATION_TYPE":"U","NORAD_CAT_ID":22739,"ELEMENT_SET_NO":999,"REV_AT_EPOCH":67848,"BSTAR":0.0001066,"MEAN_MOTION_DOT":1.59e-6,"MEAN_MOTION_DDOT":0},{"OBJECT_NAME":"NOAA 14","OBJECT_ID":"1994-089A","EPOCH":"2026-03-03T17:46:50.100096","MEAN_MOTION":14.14653686,"ECCENTRICITY":0.0010097,"INCLINATION":98.5012,"RA_OF_ASC_NODE":37.2386,"ARG_OF_PERICENTER":32.674,"MEAN_ANOMALY":327.5057,"EPHEMERIS_TYPE":0,"CLASSIFICATION_TYPE":"U","NORAD_CAT_ID":23455,"ELEMENT_SET_NO":999,"REV_AT_EPOCH":60829,"BSTAR":7.5029e-5,"MEAN_MOTION_DOT":1.03e-6,"MEAN_MOTION_DDOT":0},{"OBJECT_NAME":"NOAA 15","OBJECT_ID":"1998-030A","EPOCH":"2026-03-03T17:44:27.518496","MEAN_MOTION":14.27109779,"ECCENTRICITY":0.0009195,"INCLINATION":98.5167,"RA_OF_ASC_NODE":86.1758,"ARG_OF_PERICENTER":299.7029,"MEAN_ANOMALY":60.3236,"EPHEMERIS_TYPE":0,"CLASSIFICATION_TYPE":"U","NORAD_CAT_ID":25338,"ELEMENT_SET_NO":999,"REV_AT_EPOCH":44625,"BSTAR":9.7154e-5,"MEAN_MOTION_DOT":1.94e-6,"MEAN_MOTION_DDOT":0},{"OBJECT_NAME":"NOAA 16","OBJECT_ID":"2000-055A","EPOCH":"2026-03-03T19:05:07.355328","MEAN_MOTION":14.13896217,"ECCENTRICITY":0.0009378,"INCLINATION":98.4707,"RA_OF_ASC_NODE":82.605,"ARG_OF_PERICENTER":240.8536,"MEAN_ANOMALY":119.17,"EPHEMERIS_TYPE":0,"CLASSIFICATION_TYPE":"U","NORAD_CAT_ID":26536,"ELEMENT_SET_NO":999,"REV_AT_EPOCH":60883,"BSTAR":9.6321e-5,"MEAN_MOTION_DOT":1.42e-6,"MEAN_MOTION_DDOT":0}]
